{
    "links": {
        "self": "http://www.neowsapp.com/rest/v1/neo/3595982?api_key=iIulBulltgU6a56xZRHN4H3l9WmuAYTsLGpBGhQ2"
    },
    "id": "3595982",
    "neo_reference_id": "3595982",
    "name": "(2012 BG11)",
    "designation": "2012 BG11",
    "nasa_jpl_url": "http://ssd.jpl.nasa.gov/sbdb.cgi?sstr=3595982",
    "absolute_magnitude_h": 22.6,
    "estimated_diameter": {
        "kilometers": {
            "estimated_diameter_min": 0.0802703167,
            "estimated_diameter_max": 0.1794898848
        },
        "meters": {
            "estimated_diameter_min": 80.2703167283,
            "estimated_diameter_max": 179.4898847799
        },
        "miles": {
            "estimated_diameter_min": 0.049877647,
            "estimated_diameter_max": 0.1115298092
        },
        "feet": {
            "estimated_diameter_min": 263.3540659348,
            "estimated_diameter_max": 588.8775935812
        }
    },
    "is_potentially_hazardous_asteroid": false,
    "close_approach_data": [
        {
            "close_approach_date": "2012-01-23",
            "close_approach_date_full": "2012-Jan-23 15:33",
            "epoch_date_close_approach": 1327332780000,
            "relative_velocity": {
                "kilometers_per_second": "9.1960015195",
                "kilometers_per_hour": "33105.6054702752",
                "miles_per_hour": "20570.5357990163"
            },
            "miss_distance": {
                "astronomical": "0.0336609331",
                "lunar": "13.0941029759",
                "kilometers": "5035603.893972497",
                "miles": "3128979.1670225786"
            },
            "orbiting_body": "Earth"
        }
    ],
    "orbital_data": {
        "orbit_id": "10",
        "orbit_determination_date": "2017-04-06 08:51:24",
        "first_observation_date": "2012-01-19",
        "last_observation_date": "2012-01-26",
        "data_arc_in_days": 7,
        "observations_used": 60,
        "orbit_uncertainty": "8",
        "minimum_orbit_intersection": ".0281315",
        "jupiter_tisserand_invariant": "3.733",
        "epoch_osculation": "2455948.5",
        "eccentricity": ".5076647319889285",
        "semi_major_axis": "1.932325813487712",
        "inclination": "7.808947000798951",
        "ascending_node_longitude": "289.7747411655497",
        "orbital_period": "981.1128417135535",
        "perihelion_distance": ".9513521472681845",
        "perihelion_argument": "221.0785307496841",
        "aphelion_distance": "2.91329947970724",
        "perihelion_time": "2455972.869619412241",
        "mean_anomaly": "351.0580489670442",
        "mean_motion": ".366930270091303",
        "equinox": "J2000",
        "orbit_class": {
            "orbit_class_type": "APO",
            "orbit_class_description": "Near-Earth asteroid orbits which cross the Earth’s orbit similar to that of 1862 Apollo",
            "orbit_class_range": "a (semi-major axis) > 1.0 AU; q (perihelion) < 1.017 AU"
        }
    },
    "is_sentry_object": false
}